{
  "type": "FeatureCollection",
  "features": [
    {
      "type": "Feature",
      "properties": {
        "norad_id": 67067,
        "name": "HULIANWANG DIGUI-127",
        "group": "last-30-days",
        "lat": 49.89250120440188,
        "lon": 60.21676190204035,
        "alt_km": 804.6230360913551,
        "timestamp": "2025-12-23T18:59:30.760610+00:00",
        "meta_object_name": "HULIANWANG DIGUI-127",
        "meta_object_id": "2025-295J",
        "meta_epoch": "2025-12-22T15:39:07.411968",
        "meta_mean_motion": 14.26251195,
        "meta_eccentricity": 0.00108509,
        "meta_inclination": 50.0053,
        "meta_ra_of_asc_node": 330.3407,
        "meta_arg_of_pericenter": 289.3117,
        "meta_mean_anomaly": 70.6623,
        "meta_ephemeris_type": 0,
        "meta_classification_type": "U",
        "meta_norad_cat_id": 67067,
        "meta_element_set_no": 999,
        "meta_rev_at_epoch": 153,
        "meta_bstar": -0.00027534515,
        "meta_mean_motion_dot": -8.25e-06,
        "meta_mean_motion_ddot": 0,
        "tle_line1": "1 67067U 25295J   25356.65216912 -.00000825  00000+0 -27535-3 0  9993",
        "tle_line2": "2 67067  50.0053 330.3407 0010850 289.3117  70.6623 14.26251195  1535"
      },
      "geometry": {
        "type": "Point",
        "coordinates": [
          60.21676190204035,
          49.89250120440188
        ]
      }
    },
    {
      "type": "Feature",
      "properties": {
        "norad_id": 67068,
        "name": "CZ-12 R/B",
        "group": "last-30-days",
        "lat": 2.691670998362735,
        "lon": -33.38692199819735,
        "alt_km": 795.1011820246376,
        "timestamp": "2025-12-23T18:59:30.760619+00:00",
        "meta_object_name": "CZ-12 R/B",
        "meta_object_id": "2025-295K",
        "meta_epoch": "2025-12-23T03:59:51.614304",
        "meta_mean_motion": 14.41129215,
        "meta_eccentricity": 0.00568725,
        "meta_inclination": 49.9942,
        "meta_ra_of_asc_node": 327.0571,
        "meta_arg_of_pericenter": 173.2799,
        "meta_mean_anomaly": 186.8896,
        "meta_ephemeris_type": 0,
        "meta_classification_type": "U",
        "meta_norad_cat_id": 67068,
        "meta_element_set_no": 999,
        "meta_rev_at_epoch": 161,
        "meta_bstar": 1.279355e-05,
        "meta_mean_motion_dot": -1.26e-06,
        "meta_mean_motion_ddot": 0,
        "tle_line1": "1 67068U 25295K   25357.16656961 -.00000126  00000+0  12794-4 0  9998",
        "tle_line2": "2 67068  49.9942 327.0571 0056872 173.2799 186.8896 14.41129215  1611"
      },
      "geometry": {
        "type": "Point",
        "coordinates": [
          -33.38692199819735,
          2.691670998362735
        ]
      }
    },
    {
      "type": "Feature",
      "properties": {
        "norad_id": 67069,
        "name": "XIWANG-5 02",
        "group": "last-30-days",
        "lat": 18.95085711264747,
        "lon": -164.44496436219038,
        "alt_km": 505.0146409313156,
        "timestamp": "2025-12-23T18:59:30.760634+00:00",
        "meta_object_name": "XIWANG-5 02",
        "meta_object_id": "2025-296A",
        "meta_epoch": "2025-12-23T05:41:29.392800",
        "meta_mean_motion": 15.16885402,
        "meta_eccentricity": 0.00145839,
        "meta_inclination": 41.3523,
        "meta_ra_of_asc_node": 41.6965,
        "meta_arg_of_pericenter": 101.032,
        "meta_mean_anomaly": 259.2142,
        "meta_ephemeris_type": 0,
        "meta_classification_type": "U",
        "meta_norad_cat_id": 67069,
        "meta_element_set_no": 999,
        "meta_rev_at_epoch": 155,
        "meta_bstar": 0.00060167785,
        "meta_mean_motion_dot": 0.00011927,
        "meta_mean_motion_ddot": 0,
        "tle_line1": "1 67069U 25296A   25357.23714575  .00011927  00000+0  60168-3 0  9991",
        "tle_line2": "2 67069  41.3523  41.6965 0014583 101.0320 259.2142 15.16885402  1553"
      },
      "geometry": {
        "type": "Point",
        "coordinates": [
          -164.44496436219038,
          18.95085711264747
        ]
      }
    },
    {
      "type": "Feature",
      "properties": {
        "norad_id": 67070,
        "name": "DEAR-5",
        "group": "last-30-days",
        "lat": 15.968646667945844,
        "lon": -160.4590105335854,
        "alt_km": 505.1717916800344,
        "timestamp": "2025-12-23T18:59:30.760645+00:00",
        "meta_object_name": "DEAR-5",
        "meta_object_id": "2025-296B",
        "meta_epoch": "2025-12-23T05:40:14.195424",
        "meta_mean_motion": 15.16908903,
        "meta_eccentricity": 0.00161355,
        "meta_inclination": 41.3551,
        "meta_ra_of_asc_node": 41.6927,
        "meta_arg_of_pericenter": 102.4143,
        "meta_mean_anomaly": 257.8485,
        "meta_ephemeris_type": 0,
        "meta_classification_type": "U",
        "meta_norad_cat_id": 67070,
        "meta_element_set_no": 999,
        "meta_rev_at_epoch": 154,
        "meta_bstar": 0.00027442036,
        "meta_mean_motion_dot": 5.328e-05,
        "meta_mean_motion_ddot": 0,
        "tle_line1": "1 67070U 25296B   25357.23627541  .00005328  00000+0  27442-3 0  9995",
        "tle_line2": "2 67070  41.3551  41.6927 0016135 102.4143 257.8485 15.16908903  1542"
      },
      "geometry": {
        "type": "Point",
        "coordinates": [
          -160.4590105335854,
          15.968646667945844
        ]
      }
    },
    {
      "type": "Feature",
      "properties": {
        "norad_id": 67071,
        "name": "KZ-11 R/B",
        "group": "last-30-days",
        "lat": -11.794901496308263,
        "lon": -125.82577384645106,
        "alt_km": 642.0212248275948,
        "timestamp": "2025-12-23T18:59:30.760654+00:00",
        "meta_object_name": "KZ-11 R/B",
        "meta_object_id": "2025-296C",
        "meta_epoch": "2025-12-22T14:19:47.548704",
        "meta_mean_motion": 15.40866128,
        "meta_eccentricity": 0.04601667,
        "meta_inclination": 41.3101,
        "meta_ra_of_asc_node": 47.6253,
        "meta_arg_of_pericenter": 22.6091,
        "meta_mean_anomaly": 339.4322,
        "meta_ephemeris_type": 0,
        "meta_classification_type": "U",
        "meta_norad_cat_id": 67071,
        "meta_element_set_no": 999,
        "meta_rev_at_epoch": 142,
        "meta_bstar": 0.00047260137,
        "meta_mean_motion_dot": 0.08085331,
        "meta_mean_motion_ddot": 7.163122e-06,
        "tle_line1": "1 67071U 25296C   25356.59707811  .08085331  71631-5  47260-3 0  9997",
        "tle_line2": "2 67071  41.3101  47.6253 0460166  22.6091 339.4322 15.40866128  1427"
      },
      "geometry": {
        "type": "Point",
        "coordinates": [
          -125.82577384645106,
          -11.794901496308263
        ]
      }
    },
    {
      "type": "Feature",
      "properties": {
        "norad_id": 67072,
        "name": "ELECTRON R/B",
        "group": "last-30-days",
        "lat": 4.301464267286751,
        "lon": 145.69470348033389,
        "alt_km": 281.19593175082355,
        "timestamp": "2025-12-23T18:59:30.760664+00:00",
        "meta_object_name": "ELECTRON R/B",
        "meta_object_id": "2025-297A",
        "meta_epoch": "2025-12-22T20:41:30.293952",
        "meta_mean_motion": 16.12797911,
        "meta_eccentricity": 0.0118846,
        "meta_inclination": 97.4524,
        "meta_ra_of_asc_node": 145.1987,
        "meta_arg_of_pericenter": 196.5335,
        "meta_mean_anomaly": 163.2062,
        "meta_ephemeris_type": 0,
        "meta_classification_type": "U",
        "meta_norad_cat_id": 67072,
        "meta_element_set_no": 999,
        "meta_rev_at_epoch": 139,
        "meta_bstar": 0.0011302,
        "meta_mean_motion_dot": 0.04330228,
        "meta_mean_motion_ddot": 2.1818e-06,
        "tle_line1": "1 67072U 25297A   25356.86215618  .04330228  21818-5  11302-2 0  9991",
        "tle_line2": "2 67072  97.4524 145.1987 0118846 196.5335 163.2062 16.12797911  1397"
      },
      "geometry": {
        "type": "Point",
        "coordinates": [
          145.69470348033389,
          4.301464267286751
        ]
      }
    },
    {
      "type": "Feature",
      "properties": {
        "norad_id": 67073,
        "name": "RAISE-4",
        "group": "last-30-days",
        "lat": 26.362734189804232,
        "lon": 141.30629287057303,
        "alt_km": 546.1554126435112,
        "timestamp": "2025-12-23T18:59:30.760674+00:00",
        "meta_object_name": "RAISE-4",
        "meta_object_id": "2025-297B",
        "meta_epoch": "2025-12-23T04:32:02.532480",
        "meta_mean_motion": 15.07208545,
        "meta_eccentricity": 0.00114786,
        "meta_inclination": 97.4854,
        "meta_ra_of_asc_node": 144.4565,
        "meta_arg_of_pericenter": 281.7779,
        "meta_mean_anomaly": 78.2161,
        "meta_ephemeris_type": 0,
        "meta_classification_type": "U",
        "meta_norad_cat_id": 67073,
        "meta_element_set_no": 999,
        "meta_rev_at_epoch": 136,
        "meta_bstar": 0.00029649853,
        "meta_mean_motion_dot": 4.41e-05,
        "meta_mean_motion_ddot": 0,
        "tle_line1": "1 67073U 25297B   25357.18891820  .00004410  00000+0  29650-3 0  9990",
        "tle_line2": "2 67073  97.4854 144.4565 0011478 281.7779  78.2161 15.07208545  1365"
      },
      "geometry": {
        "type": "Point",
        "coordinates": [
          141.30629287057303,
          26.362734189804232
        ]
      }
    }
  ]
}